EYESAT-1 (AO-27)        
1 22825U 93061C   17183.86588048 -.00000004  00000-0  16232-4 0  9998
2 22825  98.8130 149.6409 0007328 288.8494  71.1893 14.29999578239372
CUTE-1 (CO-55)          
1 27844U 03031E   17183.97679522  .00000050  00000-0  42309-4 0  9996
2 27844  98.6889 192.7535 0008702 306.5974  53.4403 14.22044850726529
CUBESAT XI-IV (CO-57)   
1 27848U 03031J   17183.98084859  .00000041  00000-0  38478-4 0  9996
2 27848  98.6981 193.0231 0008764 317.0269  43.0223 14.21658714726440
CUBESAT XI 5            
1 28895U 05043F   17184.24161277  .00000131  00000-0  34017-4 0  9999
2 28895  97.8663 345.7942 0018342  92.9693 267.3609 14.63406327622608
CUTE-1.7+APD II (CO-65) 
1 32785U 08021C   17183.97940270  .00000232  00000-0  30958-4 0  9990
2 32785  97.5656 207.5311 0014647 113.6033 246.6724 14.87898946497176
COMPASS-1               
1 32787U 08021E   17184.10460769  .00000674  00000-0  70614-4 0  9991
2 32787  97.5588 216.6199 0014260  86.2032 274.0818 14.92616725497877
AAUSAT-II               
1 32788U 08021F   17184.04141961  .00000784  00000-0  78767-4 0  9994
2 32788  97.5577 219.4288 0013625  79.6847 280.5909 14.93889836497947
DELFI-C3 (DO-64)        
1 32789U 08021G   17184.24879436  .00001788  00000-0  13035-3 0  9993
2 32789  97.5577 242.1412 0013828  51.9164 308.3307 15.04916725499180
CANX-2                  
1 32790U 08021H   17184.02930157  .00000202  00000-0  27799-4 0  9992
2 32790  97.5634 205.9432 0015302 115.1004 245.1803 14.87624947497112
SEEDS II (CO-66)        
1 32791U 08021J   17184.02314319  .00000431  00000-0  49847-4 0  9991
2 32791  97.5625 211.9864 0015084  99.7089 260.5834 14.90236569497428
SWISSCUBE               
1 35932U 09051B   17184.28538230  .00000114  00000-0  36868-4 0  9990
2 35932  98.4978 323.0788 0007427 192.4352 167.6663 14.56021138412627
BEESAT                  
1 35933U 09051C   17184.20167934  .00000119  00000-0  37849-4 0  9997
2 35933  98.5015 324.3149 0005343 203.6303 156.4649 14.56140004412671
ITUPSAT 1               
1 35935U 09051E   17184.26739578  .00000099  00000-0  33888-4 0  9990
2 35935  98.5126 324.6357 0007751 200.0522 160.0371 14.55332990412544
TISAT 1                 
1 36799U 10035E   17184.25687865  .00000277  00000-0  34528-4 0  9993
2 36799  98.0635 307.3098 0010960 274.4959  85.5006 14.90407754377971
M-CUBED & EXP-1 PRIME   
1 37855U 11061F   17184.23798799  .00001441  00000-0  83009-4 0  9996
2 37855 101.7143  63.8247 0180863  34.1499 327.1192 15.03096085308736
HORYU 2                 
1 38340U 12025D   17183.95748225  .00000212  00000-0  39361-4 0  9991
2 38340  98.3761 188.4344 0010437 238.6010 121.4177 14.75348403265208
STRAND-1                
1 39090U 13009E   17184.26868964  .00000010  00000-0  19151-4 0  9996
2 39090  98.5531  29.5550 0008020 250.6943 109.3375 14.34971822227762
BRITE-AUSTRIA           
1 39091U 13009F   17184.14277123  .00000006  00000-0  17685-4 0  9990
2 39091  98.5493  28.8121 0009330 259.9095 100.1038 14.35031742227776
UNIBRITE                
1 39092U 13009G   17184.21325788  .00000006  00000-0  17551-4 0  9992
2 39092  98.5502  28.5711 0008228 252.0575 107.9714 14.34906223227761
AIST-2                  
1 39133U 13015D   17184.25711534  .00000069  00000-0  17598-4 0  9997
2 39133  64.8725 234.7715 0037782 279.5859  80.0992 15.04295396230326
SOMP                    
1 39134U 13015E   17184.22799319  .00001100  00000-0  63194-4 0  9992
2 39134  64.8639 174.6851 0036552 264.2170  95.4788 15.17836015231917
BEESAT-2                
1 39136U 13015G   17184.28175008  .00000950  00000-0  60283-4 0  9991
2 39136  64.8686 185.4240 0033259 280.1653  79.5721 15.15115954231322
NEE-01 PEGASUS          
1 39151U 13018B   17184.19605253  .00000136  00000-0  25096-4 0  9990
2 39151  97.9838 275.6143 0017083   3.4848 356.6479 14.79724819225909
CUBEBUG-1 (CAPITAN BETO)
1 39153U 13018D   17184.24863823  .00000141  00000-0  25498-4 0  9999
2 39153  97.9859 276.4595 0016941   1.6192 358.5071 14.80187676225880
ESTCUBE 1               
1 39161U 13021C   17184.03823403  .00000122  00000-0  27337-4 0  9992
2 39161  98.0285 269.8352 0011089  93.5570 266.6902 14.71903702223087
POPACS 1                
1 39268U 13055D   17184.16454507  .00007871  00000-0  22623-3 0  9996
2 39268  81.0035 351.5146 0651458 172.7208 188.4040 14.30979706193002
POPACS 2                
1 39269U 13055E   17184.20025488  .00003295  00000-0  97809-4 0  9999
2 39269  81.0165   6.5735 0700435 212.0834 143.5860 14.19927098192354
POPACS 3                
1 39270U 13055F   17184.25978479  .00000976  00000-0  30981-4 0  9994
2 39270  81.0167  14.7610 0724513 237.0680 115.8817 14.13179217172347
FIREFLY                 
1 39404U 13064AA  17184.09199082  .00044340  00000-0  25999-3 0  9995
2 39404  40.4966 202.6304 0007557 185.7872 174.2870 15.77392814203775
ZACUBE-1 (TSHEPISOSAT)  
1 39417U 13066B   17184.17580450  .00000218  00000-0  34222-4 0  9999
2 39417  97.6283 225.6434 0058427 216.4630 143.2598 14.80717255195147
WNISAT-1                
1 39423U 13066H   17184.24929960  .00000051  00000-0  19643-4 0  9992
2 39423  97.6836 171.2925 0176563  28.3641 332.7037 14.52847921191572
TRITON-1                
1 39427U 13066M   17184.28197979  .00000206  00000-0  41347-4 0  9995
2 39427  97.6371 198.5597 0112929 297.6047  61.3727 14.67466727193215
GOMX 1                  
1 39430U 13066Q   17184.22140834  .00000210  00000-0  47388-4 0  9997
2 39430  97.6650 182.0345 0151742 353.0334   6.8756 14.58876826192265
BRITE-PL                
1 39431U 13066R   17183.88657089  .00000117  00000-0  34573-4 0  9992
2 39431  97.7069 160.2508 0204071  67.2762 294.9861 14.46847444190720
HUMSAT-D                
1 39433U 13066T   17184.15510035  .00000304  00000-0  35712-4 0  9998
2 39433  97.6514 246.8046 0031810 161.3610 198.8782 14.91446768195218
EAGLE 2                 
1 39436U 13066W   17184.20493925  .00020672  00000-0  55993-3 0  9997
2 39436  97.7088 290.9415 0010430  33.3285 326.8613 15.37645646197966
CUBEBUG-2 (LO-74)       
1 39440U 13066AA  17184.04609514  .00000205  00000-0  35999-4 0  9992
2 39440  97.6276 214.5721 0079317 248.5412 110.7326 14.75458432193235
NEE-02 KRYSAOR          
1 39441U 13066AB  17184.06242664  .00000136  00000-0  26753-4 0  9995
2 39441  97.6257 213.2737 0080651 252.1558 107.0842 14.74623808193167
FUNCUBE-1 (AO-73)       
1 39444U 13066AE  17184.08002315  .00000274  00000-0  40611-4 0  9999
2 39444  97.6299 226.6263 0057680 213.3918 146.3652 14.81451885193968
UWE-3                   
1 39446U 13066AG  17184.05746580  .00000211  00000-0  35143-4 0  9992
2 39446  97.6268 219.7679 0069197 232.9942 126.4925 14.77991262193549
BRITE-TORONTO           
1 40020U 14033L   17184.20779810  .00000062  00000-0  19449-4 0  9991
2 40020  97.8342  54.2672 0086159 276.2215  82.9181 14.66395615162432
DUCHIFAT-1              
1 40021U 14033M   17184.28260823  .00000336  00000-0  40815-4 0  9994
2 40021  97.9181  97.4718 0011585 246.3840 113.6162 14.89901931164991
FLOCK 1C-10             
1 40023U 14033P   17184.19344081  .00000585  00000-0  68570-4 0  9999
2 40023  97.9200  96.4349 0011555 257.3887 102.6077 14.88727117164886
NANOSATC-BR1            
1 40024U 14033Q   17184.22478689  .00000345  00000-0  42425-4 0  9991
2 40024  97.9140  96.2763 0010891 247.8774 112.1287 14.89225875164939
QB50P1                  
1 40025U 14033R   17184.28009772  .00000251  00000-0  33175-4 0  9999
2 40025  97.9120  95.3497 0011101 250.8229 109.1786 14.88428211164372
FLOCK 1C-7              
1 40026U 14033S   17184.06800237  .00000689  00000-0  78392-4 0  9996
2 40026  97.9217  97.0523 0010027 252.9422 107.0700 14.89463425164913
FLOCK 1C-1              
1 40027U 14033T   17184.22796511  .00000374  00000-0  45975-4 0  9996
2 40027  97.9200  96.7002 0011602 252.0309 107.9611 14.88788150164902
POPSAT-HIP-1            
1 40028U 14033U   17184.04411643  .00000013  00000-0  75121-5 0  9994
2 40028  97.9156  95.3918 0012500 251.0244 108.9624 14.88295332164831
FLOCK 1C-2              
1 40029U 14033V   17184.18940381  .00000439  00000-0  52941-4 0  9992
2 40029  97.9204  96.5190 0012780 247.7021 112.2894 14.88805167164881
FLOCK 1C-4              
1 40031U 14033X   17184.14014901  .00000643  00000-0  74951-4 0  9993
2 40031  97.9204  96.4515 0013123 246.1313 113.8544 14.88656593164867
QB50P2                  
1 40032U 14033Y   17184.26506855  .00000227  00000-0  30786-4 0  9997
2 40032  97.9092  94.4380 0010542 245.0387 114.9735 14.87985805164316
FLOCK 1C-11             
1 40033U 14033Z   17184.18255008  .00000060  00000-0  12094-4 0  9997
2 40033  97.9223  97.9245 0011019 237.8298 122.1849 14.90170894164978
ANTELSAT                
1 40034U 14033AA  17184.23957986  .00000178  00000-0  34458-4 0  9996
2 40034  97.8575  67.6734 0057684 240.7658 118.7775 14.73704930162754
FLOCK 1C-9              
1 40035U 14033AB  17184.17759206  .00000203  00000-0  27667-4 0  9998
2 40035  97.9229  96.8748 0010545 242.2344 117.7784 14.88857437164887
FLOCK 1C-6              
1 40036U 14033AC  17184.19744133  .00000587  00000-0  68478-4 0  9994
2 40036  97.9241  97.1054 0010753 242.1199 117.8953 14.88966516164905
PERSEUS-M2              
1 40037U 14033AD  17184.21753744  .00000067  00000-0  13886-4 0  9992
2 40037  97.9114  92.9049 0013033 251.6752 108.3046 14.86230218164691
FLOCK 1C-5              
1 40038U 14033AE  17184.20479636  .00000698  00000-0  80293-4 0  9993
2 40038  97.9225  96.9214 0013042 241.0013 118.9928 14.88957533164892
PERSEUS-M1              
1 40039U 14033AF  17184.22135393  .00000052  00000-0  12251-4 0  9998
2 40039  97.9121  92.4641 0012918 247.2124 112.7726 14.85854340164656
FLOCK 1C-8              
1 40040U 14033AG  17184.17474264  .00000180  00000-0  24062-4 0  9992
2 40040  97.9261  99.0333 0011659 227.7095 132.3105 14.90893656165014
